NORAD_CAT_ID,OBJECT_NAME,OBJECT_TYPE,EPOCH,MEAN_MOTION,ECCENTRICITY,INCLINATION,RA_OF_ASC_NODE,ARG_OF_PERICENTER,MEAN_ANOMALY,BSTAR,MEAN_MOTION_DOT,MEAN_MOTION_DDOT,TLE_LINE0,TLE_LINE1,TLE_LINE2,SEMIMAJOR_AXIS,PERIOD,APOGEE,PERIGEE,DECAYED
53243.0,STARLINK-4047,PAYLOAD,2023-03-30 19:51:25,15.08826141,0.0001579,53.2153,349.3674,89.7399,270.3774,-0.00029803,-5.026e-05,0.0,0 STARLINK-4047,1 53243U 22086B   23089.82738418 -.00005026  00000-0 -29803-3 0  9998,2 53243  53.2153 349.3674 0001579  89.7399 270.3774 15.08826141 38996,6917.923,95.438,540.88,538.695,0.0
53243.0,STARLINK-4047,PAYLOAD,2023-03-31 03:48:20,15.08848204,0.000122,53.217,347.8778,107.2516,252.861,9.1003e-05,1.161e-05,0.0,0 STARLINK-4047,1 53243U 22086B   23090.15857548  .00001161  00000-0  91003-4 0  9998,2 53243  53.2170 347.8778 0001220 107.2516 252.8610 15.08848204 38520,6917.855,95.437,540.564,538.876,0.0
53243.0,STARLINK-4047,PAYLOAD,2023-03-31 21:17:36,15.08836858,8.69e-05,53.2173,344.6085,93.8059,266.3033,2.0323e-05,3.6e-07,0.0,0 STARLINK-4047,1 53243U 22086B   23090.88722548  .00000036  00000-0  20323-4 0  9996,2 53243  53.2173 344.6085 0000869  93.8059 266.3033 15.08836858 38632,6917.89,95.438,540.356,539.154,0.0
53243.0,STARLINK-4047,PAYLOAD,2023-04-01 00:28:22,15.08845744,0.0001027,53.2169,344.0131,81.9482,278.1626,0.00023775,3.499e-05,0.0,0 STARLINK-4047,1 53243U 22086B   23091.01970377  .00003499  00000-0  23775-3 0  9996,2 53243  53.2169 344.0131 0001027  81.9482 278.1626 15.08845744 38653,6917.863,95.437,540.438,539.017,0.0
53243.0,STARLINK-4047,PAYLOAD,2023-04-01 16:22:14,15.08832437,0.0001219,53.2177,341.0421,81.8803,278.2328,0.00010837,1.437e-05,0.0,0 STARLINK-4047,1 53243U 22086B   23091.68211368  .00001437  00000-0  10837-3 0  9992,2 53243  53.2177 341.0421 0001219  81.8803 278.2328 15.08832437 38756,6917.904,95.438,540.612,538.925,0.0
53243.0,STARLINK-4047,PAYLOAD,2023-04-01 22:43:47,15.08833979,9.16e-05,53.2172,339.8513,95.3821,264.7276,0.00017716,2.532e-05,0.0,0 STARLINK-4047,1 53243U 22086B   23091.94707388  .00002532  00000-0  17716-3 0  9993,2 53243  53.2172 339.8513 0000916  95.3821 264.7276 15.08833979 39318,6917.899,95.438,540.397,539.13,0.0
53243.0,STARLINK-4047,PAYLOAD,2023-04-02 22:34:34,15.08845863,0.0001108,53.2172,335.3919,69.5834,290.5277,0.00029382,4.392e-05,0.0,0 STARLINK-4047,1 53243U 22086B   23092.94067280  .00004392  00000-0  29382-3 0  9992,2 53243  53.2172 335.3919 0001108  69.5834 290.5277 15.08845863 39469,6917.862,95.437,540.494,538.961,0.0
53243.0,STARLINK-4047,PAYLOAD,2023-04-03 00:09:57,15.08851378,0.0001291,53.2172,335.0926,71.7356,288.3777,0.00047774,7.326e-05,0.0,0 STARLINK-4047,1 53243U 22086B   23093.00691088  .00007326  00000-0  47774-3 0  9994,2 53243  53.2172 335.0926 0001291  71.7356 288.3777 15.08851378 38952,6917.846,95.437,540.604,538.818,0.0
53243.0,STARLINK-4047,PAYLOAD,2023-04-03 16:03:48,15.08844672,0.0001358,53.2172,332.1208,75.2534,284.8609,0.00022185,3.245e-05,0.0,0 STARLINK-4047,1 53243U 22086B   23093.66931384  .00003245  00000-0  22185-3 0  9997,2 53243  53.2172 332.1208 0001358  75.2534 284.8609 15.08844672 39050,6917.866,95.437,540.671,538.792,0.0
53243.0,STARLINK-4047,PAYLOAD,2023-04-04 01:36:07,15.08853,0.0001205,53.2171,330.3354,85.7162,274.3968,0.00037285,5.653e-05,0.0,0 STARLINK-4047,1 53243U 22086B   23094.06675014  .00005653  00000-0  37285-3 0  9999,2 53243  53.2171 330.3354 0001205  85.7162 274.3968 15.08853000 39636,6917.841,95.437,540.539,538.872,0.0
53243.0,STARLINK-4047,PAYLOAD,2023-04-04 20:40:44,15.08844831,0.0001319,53.2171,326.7657,89.2956,270.8188,0.00016215,2.294e-05,0.0,0 STARLINK-4047,1 53243U 22086B   23094.86163033  .00002294  00000-0  16215-3 0  9998,2 53243  53.2171 326.7657 0001319  89.2956 270.8188 15.08844831 39230,6917.866,95.437,540.643,538.818,0.0
53243.0,STARLINK-4047,PAYLOAD,2023-04-05 01:26:53,15.08852462,0.0001272,53.2173,325.8732,84.8516,275.2621,0.00022469,3.291e-05,0.0,0 STARLINK-4047,1 53243U 22086B   23095.06034613  .00003291  00000-0  22469-3 0  9998,2 53243  53.2173 325.8732 0001272  84.8516 275.2621 15.08852462 39787,6917.842,95.437,540.587,538.827,0.0
53243.0,STARLINK-4047,PAYLOAD,2023-04-05 20:31:31,15.08839546,0.0001516,53.2171,322.3064,122.1588,237.9551,1.2148e-05,-9.5e-07,0.0,0 STARLINK-4047,1 53243U 22086B   23095.85523089 -.00000095  00000-0  12148-4 0  9999,2 53243  53.2171 322.3064 0001516 122.1588 237.9551 15.08839546 39900,6917.882,95.438,540.796,538.698,0.0
53243.0,STARLINK-4047,PAYLOAD,2023-04-05 22:06:55,15.08841018,0.0001188,53.2164,322.0085,91.7746,268.3382,6.4019e-05,7.31e-06,0.0,0 STARLINK-4047,1 53243U 22086B   23095.92147106  .00000731  00000-0  64019-4 0  9999,2 53243  53.2164 322.0085 0001188  91.7746 268.3382 15.08841018 39394,6917.877,95.437,540.564,538.92,0.0
53243.0,STARLINK-4047,PAYLOAD,2023-04-06 14:00:46,15.08837539,0.0001297,53.217,319.0369,89.58,270.534,7.1269e-05,8.46e-06,0.0,0 STARLINK-4047,1 53243U 22086B   23096.58387484  .00000846  00000-0  71269-4 0  9999,2 53243  53.2170 319.0369 0001297  89.5800 270.5340 15.08837539 40012,6917.888,95.438,540.65,538.856,0.0
53243.0,STARLINK-4047,PAYLOAD,2023-04-06 21:57:42,15.08844745,0.0001343,53.2164,317.5505,104.5469,255.5673,0.00016204,2.292e-05,0.0,0 STARLINK-4047,1 53243U 22086B   23096.91507054  .00002292  00000-0  16204-3 0  9997,2 53243  53.2164 317.5505 0001343 104.5469 255.5673 15.08844745 40065,6917.866,95.437,540.66,538.802,0.0
53243.0,STARLINK-4047,PAYLOAD,2023-04-07 01:08:28,15.08845143,0.00013,53.2164,316.9552,93.6133,266.5008,0.00030415,4.557e-05,0.0,0 STARLINK-4047,1 53243U 22086B   23097.04755149  .00004557  00000-0  30415-3 0  9998,2 53243  53.2164 316.9552 0001300  93.6133 266.5008 15.08845143 39569,6917.865,95.437,540.629,538.83,0.0
53243.0,STARLINK-4047,PAYLOAD,2023-04-07 17:02:20,15.08838918,0.0001365,53.2149,313.981,87.4791,272.6358,7.3815e-05,8.87e-06,0.0,0 STARLINK-4047,1 53243U 22086B   23097.70995462  .00000887  00000-0  73815-4 0  9999,2 53243  53.2149 313.9810 0001365  87.4791 272.6358 15.08838918 39667,6917.884,95.438,540.693,538.804,0.0
53243.0,STARLINK-4047,PAYLOAD,2023-04-08 00:59:15,15.08844715,0.00012,53.2167,312.4948,86.3137,273.7992,0.00016638,2.361e-05,0.0,0 STARLINK-4047,1 53243U 22086B   23098.04115322  .00002361  00000-0  16638-3 0  9994,2 53243  53.2167 312.4948 0001200  86.3137 273.7992 15.08844715 40236,6917.866,95.437,540.561,538.901,0.0
53243.0,STARLINK-4047,PAYLOAD,2023-04-08 20:03:53,15.08836436,0.000128,53.2158,308.9243,79.8845,280.2291,-1.5352e-06,-3.12e-06,0.0,0 STARLINK-4047,1 53243U 22086B   23098.83604016 -.00000312  00000-0 -15352-5 0  9994,2 53243  53.2158 308.9243 0001280  79.8845 280.2291 15.08836436 39835,6917.891,95.438,540.642,538.871,0.0
53243.0,STARLINK-4047,PAYLOAD,2023-04-09 13:33:08,15.08841959,0.0001352,53.216,305.6558,75.1347,284.9794,0.00022395,3.278e-05,0.0,0 STARLINK-4047,1 53243U 22086B   23099.56468065  .00003278  00000-0  22395-3 0  9992,2 53243  53.2160 305.6558 0001352  75.1347 284.9794 15.08841959 40463,6917.874,95.437,540.675,538.804,0.0
53243.0,STARLINK-4047,PAYLOAD,2023-04-09 19:54:40,15.0886052,0.000163,53.2164,304.4665,88.0393,272.0786,0.00055184,8.51e-05,0.0,0 STARLINK-4047,1 53243U 22086B   23099.82963456  .00008510  00000-0  55184-3 0  9991,2 53243  53.2164 304.4665 0001630  88.0393 272.0786 15.08860520 39985,6917.818,95.436,540.81,538.555,0.0
53243.0,STARLINK-4047,PAYLOAD,2023-04-10 13:23:55,15.08851128,0.0001259,53.2161,301.1948,79.5462,280.5672,0.00035943,5.439e-05,0.0,0 STARLINK-4047,1 53243U 22086B   23100.55827737  .00005439  00000-0  35943-3 0  9993,2 53243  53.2161 301.1948 0001259  79.5462 280.5672 15.08851128 40095,6917.846,95.437,540.582,538.84,0.0
53243.0,STARLINK-4047,PAYLOAD,2023-04-10 19:45:27,15.08854064,9.56e-05,53.2163,300.0032,89.2779,270.8322,0.00032237,4.848e-05,0.0,0 STARLINK-4047,1 53243U 22086B   23100.82323355  .00004848  00000-0  32237-3 0  9996,2 53243  53.2163 300.0032 0000956  89.2779 270.8322 15.08854064 40659,6917.837,95.437,540.364,539.041,0.0
53243.0,STARLINK-4047,PAYLOAD,2023-04-11 13:14:42,15.08837889,0.0001108,53.2162,296.7338,86.6374,273.4745,8.6157e-05,1.084e-05,0.0,0 STARLINK-4047,1 53243U 22086B   23101.55187925  .00001084  00000-0  86157-4 0  9998,2 53243  53.2162 296.7338 0001108  86.6374 273.4745 15.08837889 40249,6917.887,95.438,540.518,538.985,0.0
53243.0,STARLINK-4047,PAYLOAD,2023-04-11 14:50:05,15.08839149,0.0001205,53.2167,296.4361,87.7352,272.3778,-1.6052e-06,-3.13e-06,0.0,0 STARLINK-4047,1 53243U 22086B   23101.61811815 -.00000313  00000-0 -16052-5 0  9991,2 53243  53.2167 296.4361 0001205  87.7352 272.3778 15.08839149 40776,6917.883,95.438,540.582,538.914,0.0
53243.0,STARLINK-4047,PAYLOAD,2023-04-12 13:05:29,15.08843089,0.0001124,53.2165,292.2715,98.3943,261.7176,0.0001185,1.599e-05,0.0,0 STARLINK-4047,1 53243U 22086B   23102.54547744  .00001599  00000-0  11850-3 0  9995,2 53243  53.2165 292.2715 0001124  98.3943 261.7176 15.08843089 40913,6917.871,95.437,540.514,538.958,0.0
53243.0,STARLINK-4047,PAYLOAD,2023-04-12 19:27:01,15.08845402,9.58e-05,53.2166,291.083,88.8375,271.2727,0.00027786,4.138e-05,0.0,0 STARLINK-4047,1 53243U 22086B   23102.81043738  .00004138  00000-0  27786-3 0  9996,2 53243  53.2166 291.0830 0000958  88.8375 271.2727 15.08845402 40432,6917.864,95.437,540.392,539.066,0.0
53243.0,STARLINK-4047,PAYLOAD,2023-04-13 04:59:21,15.08830705,0.0002257,53.2134,289.2969,95.8811,264.2438,1.7756e-05,-6e-08,0.0,0 STARLINK-4047,1 53243U 22086B   23103.20788382 -.00000006  00000-0  17756-4 0  9999,2 53243  53.2134 289.2969 0002257  95.8811 264.2438 15.08830705 41012,6917.909,95.438,541.335,538.212,0.0
53243.0,STARLINK-4047,PAYLOAD,2023-04-13 14:31:39,15.08838149,0.0001249,53.2159,287.5133,110.0297,250.0829,0.00014167,1.967e-05,0.0,0 STARLINK-4047,1 53243U 22086B   23103.60532041  .00001967  00000-0  14167-3 0  9990,2 53243  53.2159 287.5133 0001249 110.0297 250.0829 15.08838149 40556,6917.886,95.438,540.615,538.887,0.0
